{
    "links": {
        "self": "http://www.neowsapp.com/rest/v1/neo/3692748?api_key=iIulBulltgU6a56xZRHN4H3l9WmuAYTsLGpBGhQ2"
    },
    "id": "3692748",
    "neo_reference_id": "3692748",
    "name": "(2014 TJ17)",
    "designation": "2014 TJ17",
    "nasa_jpl_url": "http://ssd.jpl.nasa.gov/sbdb.cgi?sstr=3692748",
    "absolute_magnitude_h": 24.9,
    "estimated_diameter": {
        "kilometers": {
            "estimated_diameter_min": 0.0278326768,
            "estimated_diameter_max": 0.0622357573
        },
        "meters": {
            "estimated_diameter_min": 27.8326768072,
            "estimated_diameter_max": 62.2357573367
        },
        "miles": {
            "estimated_diameter_min": 0.0172944182,
            "estimated_diameter_max": 0.0386714948
        },
        "feet": {
            "estimated_diameter_min": 91.3145593761,
            "estimated_diameter_max": 204.1855621004
        }
    },
    "is_potentially_hazardous_asteroid": false,
    "close_approach_data": [
        {
            "close_approach_date": "2010-12-09",
            "close_approach_date_full": "2010-Dec-09 15:00",
            "epoch_date_close_approach": 1291906800000,
            "relative_velocity": {
                "kilometers_per_second": "21.6364201931",
                "kilometers_per_hour": "77891.1126951838",
                "miles_per_hour": "48398.5083299602"
            },
            "miss_distance": {
                "astronomical": "0.4913189781",
                "lunar": "191.1230824809",
                "kilometers": "73500272.614336647",
                "miles": "45670951.6123818486"
            },
            "orbiting_body": "Earth"
        },
        {
            "close_approach_date": "2014-10-12",
            "close_approach_date_full": "2014-Oct-12 17:16",
            "epoch_date_close_approach": 1413134160000,
            "relative_velocity": {
                "kilometers_per_second": "8.7040201552",
                "kilometers_per_hour": "31334.472558554",
                "miles_per_hour": "19470.0226850637"
            },
            "miss_distance": {
                "astronomical": "0.0377047518",
                "lunar": "14.6671484502",
                "kilometers": "5640550.558158666",
                "miles": "3504875.5935989508"
            },
            "orbiting_body": "Earth"
        },
        {
            "close_approach_date": "2049-09-26",
            "close_approach_date_full": "2049-Sep-26 06:04",
            "epoch_date_close_approach": 2516249040000,
            "relative_velocity": {
                "kilometers_per_second": "10.4593643815",
                "kilometers_per_hour": "37653.7117732927",
                "miles_per_hour": "23396.5521849107"
            },
            "miss_distance": {
                "astronomical": "0.0727296305",
                "lunar": "28.2918262645",
                "kilometers": "10880197.808687035",
                "miles": "6760641.423209683"
            },
            "orbiting_body": "Earth"
        },
        {
            "close_approach_date": "2076-11-14",
            "close_approach_date_full": "2076-Nov-14 06:52",
            "epoch_date_close_approach": 3372562320000,
            "relative_velocity": {
                "kilometers_per_second": "11.4236108586",
                "kilometers_per_hour": "41124.9990909197",
                "miles_per_hour": "25553.4751295773"
            },
            "miss_distance": {
                "astronomical": "0.1152877607",
                "lunar": "44.8469389123",
                "kilometers": "17246803.437789709",
                "miles": "10716666.7178036242"
            },
            "orbiting_body": "Earth"
        }
    ],
    "orbital_data": {
        "orbit_id": "15",
        "orbit_determination_date": "2017-04-06 08:38:14",
        "first_observation_date": "2014-10-03",
        "last_observation_date": "2014-10-30",
        "data_arc_in_days": 27,
        "observations_used": 63,
        "orbit_uncertainty": "5",
        "minimum_orbit_intersection": ".0234471",
        "jupiter_tisserand_invariant": "3.205",
        "epoch_osculation": "2459000.5",
        "eccentricity": ".5884089450297428",
        "semi_major_axis": "2.474301648635417",
        "inclination": "8.649724504833989",
        "ascending_node_longitude": "200.6997587871886",
        "orbital_period": "1421.599930707027",
        "perihelion_distance": "1.018400425876498",
        "perihelion_argument": "186.0378409323283",
        "aphelion_distance": "3.930202871394336",
        "perihelion_time": "2458376.048554744732",
        "mean_anomaly": "158.1334631748976",
        "mean_motion": ".2532358030018723",
        "equinox": "J2000",
        "orbit_class": {
            "orbit_class_type": "AMO",
            "orbit_class_description": "Near-Earth asteroid orbits similar to that of 1221 Amor",
            "orbit_class_range": "1.017 AU < q (perihelion) < 1.3 AU"
        }
    },
    "is_sentry_object": false
}